[
  {
    "id": 1,
    "place_name": "Cordelia",
    "lat": 49.8687559,
    "long": 17.0138788
  }, {
    "id": 2,
    "place_name": "Kedzie",
    "lat": 52.7374731,
    "long": 19.9917009
  }, {
    "id": 3,
    "place_name": "Novick",
    "lat": 13.5353957,
    "long": -88.3506468
  }, {
    "id": 4,
    "place_name": "Northport",
    "lat": -6.9176355,
    "long": 112.4500076
  }, {
    "id": 5,
    "place_name": "Maywood",
    "lat": 24.347324,
    "long": 102.527197
  }, {
    "id": 6,
    "place_name": "Dottie",
    "lat": -0.819175,
    "long": 120.167297
  }, {
    "id": 7,
    "place_name": "Daystar",
    "lat": 56.5023602,
    "long": 60.8150629
  }, {
    "id": 8,
    "place_name": "Moland",
    "lat": 47.6022755,
    "long": 6.2194418
  }, {
    "id": 9,
    "place_name": "Farwell",
    "lat": 20.9425179,
    "long": -17.0362272
  }, {
    "id": 10,
    "place_name": "Fieldstone",
    "lat": 47.2495437,
    "long": 107.5408308
  }, {
    "id": 11,
    "place_name": "Independence",
    "lat": 48.019573,
    "long": 66.923684
  }, {
    "id": 12,
    "place_name": "Oak Valley",
    "lat": 54.2048528,
    "long": 73.5658901
  }, {
    "id": 13,
    "place_name": "Gerald",
    "lat": 43.8580221,
    "long": 18.4306437
  }, {
    "id": 14,
    "place_name": "Huxley",
    "lat": -8.1658601,
    "long": 111.7763713
  }, {
    "id": 15,
    "place_name": "Sloan",
    "lat": 44.956193,
    "long": 128.3838321
  }
]
